NORAD_CAT_ID,OBJECT_NAME,OBJECT_TYPE,EPOCH,MEAN_MOTION,ECCENTRICITY,INCLINATION,RA_OF_ASC_NODE,ARG_OF_PERICENTER,MEAN_ANOMALY,BSTAR,MEAN_MOTION_DOT,MEAN_MOTION_DDOT,TLE_LINE0,TLE_LINE1,TLE_LINE2,SEMIMAJOR_AXIS,PERIOD,APOGEE,PERIGEE,DECAYED
55412.0,STARLINK-5033,PAYLOAD,2023-11-22 15:25:09,14.98347943,0.0003318,70.0005,37.3626,264.847,95.2311,0.00019447,2.229e-05,0.0,0 STARLINK-5033,1 55412U 23014X   23326.64247487  .00002229  00000-0  19447-3 0  9998,2 55412  70.0005  37.3626 0003318 264.8470  95.2311 14.98347943 45095,6950.137,96.106,574.308,569.696,0.0
55412.0,STARLINK-5033,PAYLOAD,2023-11-23 10:38:47,14.98319947,0.000317,70.001,35.3431,265.2757,94.804,0.0003941,4.611e-05,0.0,0 STARLINK-5033,1 55412U 23014X   23327.44360466  .00004611  00000-0  39410-3 0  9999,2 55412  70.0010  35.3431 0003170 265.2757  94.8040 14.98319947 45213,6950.224,96.108,574.292,569.886,0.0
55412.0,STARLINK-5033,PAYLOAD,2023-11-23 13:51:03,14.98319377,0.0003024,70.0016,35.0063,255.5866,104.4957,0.00040515,4.743e-05,0.0,0 STARLINK-5033,1 55412U 23014X   23327.57712469  .00004743  00000-0  40515-3 0  9991,2 55412  70.0016  35.0063 0003024 255.5866 104.4957 14.98319377 46176,6950.226,96.108,574.192,569.989,0.0
55412.0,STARLINK-5033,PAYLOAD,2023-11-24 10:40:48,14.98333399,0.0003073,70.0019,32.8196,249.6176,110.4653,-0.00022324,-2.756e-05,0.0,0 STARLINK-5033,1 55412U 23014X   23328.44501119 -.00002756  00000-0 -22324-3 0  9998,2 55412  70.0019  32.8196 0003073 249.6176 110.4653 14.98333399 45363,6950.182,96.107,574.183,569.912,0.0
55412.0,STARLINK-5033,PAYLOAD,2023-11-24 13:53:04,14.98335588,0.0003294,70.0011,32.482,258.978,101.1009,-0.00020514,-2.54e-05,0.0,0 STARLINK-5033,1 55412U 23014X   23328.57852938 -.00002540  00000-0 -20514-3 0  9990,2 55412  70.0011  32.4820 0003294 258.9780 101.1009 14.98335588 46325,6950.176,96.107,574.33,569.751,0.0
55412.0,STARLINK-5033,PAYLOAD,2023-11-25 13:55:04,14.98344723,0.0003554,70.0001,29.9554,268.2704,91.8048,4.1516e-05,4.03e-06,0.0,0 STARLINK-5033,1 55412U 23014X   23329.57991143  .00000403  00000-0  41516-4 0  9993,2 55412  70.0001  29.9554 0003554 268.2704  91.8048 14.98344723 46473,6950.147,96.106,574.482,569.542,0.0
55412.0,STARLINK-5033,PAYLOAD,2023-11-26 02:44:08,14.98334458,0.0003199,70.001,28.6101,260.4737,99.606,0.00013024,1.462e-05,0.0,0 STARLINK-5033,1 55412U 23014X   23330.11399173  .00001462  00000-0  13024-3 0  9998,2 55412  70.0010  28.6101 0003199 260.4737  99.6060 14.98334458 45611,6950.179,96.107,574.267,569.821,0.0
55412.0,STARLINK-5033,PAYLOAD,2023-11-26 13:57:04,14.98338048,0.0003013,70.0012,27.4305,253.4961,106.5867,0.00016346,1.858e-05,0.0,0 STARLINK-5033,1 55412U 23014X   23330.58130660  .00001858  00000-0  16346-3 0  9992,2 55412  70.0012  27.4305 0003013 253.4961 106.5867 14.98338048 46626,6950.168,96.106,574.127,569.939,0.0
55412.0,STARLINK-5033,PAYLOAD,2023-11-27 04:22:19,14.98320954,0.0002708,70.0052,25.923,224.2899,135.8043,-8.4265e-05,-1.098e-05,0.0,0 STARLINK-5033,1 55412U 23014X   23331.18216485 -.00001098  00000-0 -84265-4 0  9993,2 55412  70.0052  25.9230 0002708 224.2899 135.8043 14.98320954 45779,6950.221,96.108,573.968,570.204,0.0
55412.0,STARLINK-5033,PAYLOAD,2023-11-27 12:23:00,14.98307205,0.0002948,70.0016,25.0766,250.3717,109.7124,-0.0003128,-3.821e-05,0.0,0 STARLINK-5033,1 55412U 23014X   23331.51598264 -.00003821  00000-0 -31280-3 0  9992,2 55412  70.0016  25.0766 0002948 250.3717 109.7124 14.98307205 45829,6950.263,96.108,574.177,570.079,0.0
55412.0,STARLINK-5033,PAYLOAD,2023-11-27 13:59:08,14.9830906,0.0002941,70.001,24.906,257.8425,102.2404,-0.00027816,-3.408e-05,0.0,0 STARLINK-5033,1 55412U 23014X   23331.58274186 -.00003408  00000-0 -27816-3 0  9994,2 55412  70.0010  24.9060 0002941 257.8425 102.2404 14.98309060 46774,6950.258,96.108,574.167,570.079,0.0
55412.0,STARLINK-5033,PAYLOAD,2023-11-28 10:48:52,14.98324466,0.000283,70.001,22.7168,270.5056,89.5779,-9.2213e-05,-1.193e-05,0.0,0 STARLINK-5033,1 55412U 23014X   23332.45061295 -.00001193  00000-0 -92213-4 0  9999,2 55412  70.0010  22.7168 0002830 270.5056  89.5779 14.98324466 45967,6950.21,96.107,574.042,570.108,0.0
55412.0,STARLINK-5033,PAYLOAD,2023-11-28 14:01:09,14.9832516,0.0002696,70.002,22.3811,269.2631,90.8219,-6.943e-05,-9.21e-06,0.0,0 STARLINK-5033,1 55412U 23014X   23332.58413248 -.00000921  00000-0 -69430-4 0  9995,2 55412  70.0020  22.3811 0002696 269.2631  90.8219 14.98325160 46926,6950.208,96.107,573.947,570.199,0.0
55412.0,STARLINK-5033,PAYLOAD,2023-11-29 04:26:20,14.98320705,0.0003761,69.9994,20.863,275.3544,84.7185,0.0003543,4.136e-05,0.0,0 STARLINK-5033,1 55412U 23014X   23333.18496122  .00004136  00000-0  35430-3 0  9996,2 55412  69.9994  20.8630 0003761 275.3544  84.7185 14.98320705 46070,6950.222,96.108,574.701,569.473,0.0
55412.0,STARLINK-5033,PAYLOAD,2023-11-29 12:27:00,14.9832185,0.0003386,70.0001,20.022,277.2081,82.8693,0.0005848,6.89e-05,0.0,0 STARLINK-5033,1 55412U 23014X   23333.51875602  .00006890  00000-0  58480-3 0  9996,2 55412  70.0001  20.0220 0003386 277.2081  82.8693 14.98321850 47064,6950.218,96.108,574.436,569.73,0.0
55412.0,STARLINK-5033,PAYLOAD,2023-11-30 10:52:53,14.98334824,0.0003416,69.9993,17.6658,273.0472,87.0296,-1.8136e-05,-3.09e-06,0.0,0 STARLINK-5033,1 55412U 23014X   23334.45340161 -.00000309  00000-0 -18136-4 0  9993,2 55412  69.9993  17.6658 0003416 273.0472  87.0296 14.98334824 46262,6950.178,96.107,574.417,569.669,0.0
55412.0,STARLINK-5033,PAYLOAD,2023-12-01 10:54:54,14.98334805,0.0003265,70.0001,15.1414,273.2335,86.8451,-0.00014932,-1.874e-05,0.0,0 STARLINK-5033,1 55412U 23014X   23335.45480215 -.00001874  00000-0 -14932-3 0  9996,2 55412  70.0001  15.1414 0003265 273.2335  86.8451 14.98334805 46416,6950.178,96.107,574.312,569.774,0.0
55412.0,STARLINK-5033,PAYLOAD,2023-12-01 12:31:02,14.98336628,0.0003207,70.0004,14.9741,271.733,88.3462,-0.0001317,-1.664e-05,0.0,0 STARLINK-5033,1 55412U 23014X   23335.52156028 -.00001664  00000-0 -13170-3 0  9996,2 55412  70.0004  14.9741 0003207 271.7330  88.3462 14.98336628 47362,6950.172,96.107,574.266,569.808,0.0
55412.0,STARLINK-5033,PAYLOAD,2023-12-02 10:56:54,14.98341091,0.0002631,70.0015,12.6188,250.1573,109.9302,0.0001679,1.911e-05,0.0,0 STARLINK-5033,1 55412U 23014X   23336.45618272  .00001911  00000-0  16790-3 0  9997,2 55412  70.0015  12.6188 0002631 250.1573 109.9302 14.98341091 46568,6950.159,96.106,573.852,570.195,0.0
55412.0,STARLINK-5033,PAYLOAD,2023-12-02 12:33:02,14.98344255,0.0002759,70.001,12.4495,266.2847,93.7996,0.00019373,2.22e-05,0.0,0 STARLINK-5033,1 55412U 23014X   23336.52294041  .00002220  00000-0  19373-3 0  9993,2 55412  70.0010  12.4495 0002759 266.2847  93.7996 14.98344255 47515,6950.149,96.106,573.931,570.096,0.0
55412.0,STARLINK-5033,PAYLOAD,2023-12-03 03:00:35,14.96426317,0.0006762,70.0014,10.9409,37.5718,322.5911,-0.022073,-0.00242494,0.0,0 STARLINK-5033,1 55412U 23014X   23337.12541304 -.00242494  00000-0 -22073-1 0  9997,2 55412  70.0014  10.9409 0006762  37.5718 322.5911 14.96426317 46664,6956.086,96.229,582.655,573.247,0.0
55412.0,STARLINK-5033,PAYLOAD,2023-12-03 14:00:01,14.98291401,0.0003513,70.0011,9.7739,281.7709,36.3292,0.0030111,0.00035985,0.0,0 STARLINK-5033,1 55412U 23014X   23337.58334491  .00035985  00000-0  30111-2 0  9990,2 55412  70.0011   9.7739 0003513 281.7709  36.3292 14.98291401 46733,6950.312,96.109,574.619,569.736,0.0
55412.0,STARLINK-5033,PAYLOAD,2023-12-04 03:00:31,14.98145037,0.0001382,70.0047,8.4161,232.6647,127.4386,-0.0021641,-0.00025695,0.0,0 STARLINK-5033,1 55412U 23014X   23338.12536078 -.00025695  00000-0 -21641-2 0  9993,2 55412  70.0047   8.4161 0001382 232.6647 127.4386 14.98145037 46813,6950.765,96.119,573.591,571.669,0.0
55412.0,STARLINK-5033,PAYLOAD,2023-12-04 07:48:43,14.98315736,0.0002246,70.0033,7.9069,232.0086,128.087,-0.0002264,-2.792e-05,0.0,0 STARLINK-5033,1 55412U 23014X   23338.32549866 -.00002792  00000-0 -22640-3 0  9998,2 55412  70.0033   7.9069 0002246 232.0086 128.0870 14.98315736 46843,6950.237,96.108,573.663,570.541,0.0
55412.0,STARLINK-5033,PAYLOAD,2023-12-04 12:37:06,14.98310106,0.0003055,70.002,7.401,276.1857,83.8954,-0.00032578,-3.976e-05,0.0,0 STARLINK-5033,1 55412U 23014X   23338.52577114 -.00003976  00000-0 -32578-3 0  9993,2 55412  70.0020   7.4010 0003055 276.1857  83.8954 14.98310106 47819,6950.254,96.108,574.243,569.996,0.0
55412.0,STARLINK-5033,PAYLOAD,2023-12-05 03:02:17,14.98311477,0.0003631,70.0012,5.8859,282.64,77.4353,0.00025031,2.894e-05,0.0,0 STARLINK-5033,1 55412U 23014X   23339.12659683  .00002894  00000-0  25031-3 0  9994,2 55412  70.0012   5.8859 0003631 282.6400  77.4353 14.98311477 46968,6950.25,96.108,574.639,569.592,0.0
55412.0,STARLINK-5033,PAYLOAD,2023-12-05 12:39:05,14.98329027,0.0003205,70.0017,4.8766,281.4121,78.6678,0.00042033,4.926e-05,0.0,0 STARLINK-5033,1 55412U 23014X   23339.52714661  .00004926  00000-0  42033-3 0  9995,2 55412  70.0017   4.8766 0003205 281.4121  78.6678 14.98329027 47967,6950.196,96.107,574.288,569.833,0.0
55412.0,STARLINK-5033,PAYLOAD,2023-12-06 04:40:27,14.98336946,0.0003217,70.0014,3.193,278.9514,81.128,0.00021922,2.524e-05,0.0,0 STARLINK-5033,1 55412U 23014X   23340.19476188  .00002524  00000-0  21922-3 0  9995,2 55412  70.0014   3.1930 0003217 278.9514  81.1280 14.98336946 47123,6950.171,96.107,574.272,569.801,0.0
55412.0,STARLINK-5033,PAYLOAD,2023-12-06 11:04:59,14.98353594,0.0002401,70.0022,2.5199,259.1231,100.9658,-0.00012267,-1.557e-05,0.0,0 STARLINK-5033,1 55412U 23014X   23340.46179763 -.00001557  00000-0 -12267-3 0  9993,2 55412  70.0022   2.5199 0002401 259.1231 100.9658 14.98353594 47164,6950.12,96.105,573.654,570.316,0.0
55412.0,STARLINK-5033,PAYLOAD,2023-12-07 03:06:19,14.98340225,0.0002317,70.0027,0.8376,236.0411,124.0528,1.0213e-05,2.9e-07,0.0,0 STARLINK-5033,1 55412U 23014X   23341.12939808  .00000029  00000-0  10213-4 0  9992,2 55412  70.0027   0.8376 0002317 236.0411 124.0528 14.98340225 47268,6950.161,96.106,573.637,570.416,0.0
